CCSDS_OMM_VERS = 2.0
CREATION_DATE  = 
ORIGINATOR     = 

OBJECT_NAME    = DELTA 2 R/B(1)
OBJECT_ID      = 1990-008B
CENTER_NAME    = EARTH
REF_FRAME      = TEME
TIME_SYSTEM    = UTC
MEAN_ELEMENT_THEORY = SGP/SGP4

EPOCH          = 2026-02-09T07:10:04.959264
MEAN_MOTION    = 15.52034445
ECCENTRICITY   = .0094071
INCLINATION    = 35.6056
RA_OF_ASC_NODE = 0.6113
ARG_OF_PERICENTER = 353.6638
MEAN_ANOMALY   = 6.2904

EPHEMERIS_TYPE = 0
CLASSIFICATION_TYPE = U
NORAD_CAT_ID   = 20453
ELEMENT_SET_NO = 999
REV_AT_EPOCH   = 92171
BSTAR          = .99426E-3
MEAN_MOTION_DOT = .75412E-3
MEAN_MOTION_DDOT = 0

CCSDS_OMM_VERS = 2.0
CREATION_DATE  = 
ORIGINATOR     = 

OBJECT_NAME    = COSMOS 2058
OBJECT_ID      = 1990-010A
CENTER_NAME    = EARTH
REF_FRAME      = TEME
TIME_SYSTEM    = UTC
MEAN_ELEMENT_THEORY = SGP/SGP4

EPOCH          = 2026-02-09T13:45:04.461120
MEAN_MOTION    = 15.11059680
ECCENTRICITY   = .00119503
INCLINATION    = 82.4643
RA_OF_ASC_NODE = 75.1267
ARG_OF_PERICENTER = 75.4906
MEAN_ANOMALY   = 284.7649

EPHEMERIS_TYPE = 0
CLASSIFICATION_TYPE = U
NORAD_CAT_ID   = 20465
ELEMENT_SET_NO = 999
REV_AT_EPOCH   = 93799
BSTAR          = .26040928E-3
MEAN_MOTION_DOT = .439E-4
MEAN_MOTION_DDOT = 0

CCSDS_OMM_VERS = 2.0
CREATION_DATE  = 
ORIGINATOR     = 

OBJECT_NAME    = SL-14 R/B
OBJECT_ID      = 1990-010B
CENTER_NAME    = EARTH
REF_FRAME      = TEME
TIME_SYSTEM    = UTC
MEAN_ELEMENT_THEORY = SGP/SGP4

EPOCH          = 2026-02-09T03:45:45.481824
MEAN_MOTION    = 14.83543721
ECCENTRICITY   = .00207776
INCLINATION    = 82.5027
RA_OF_ASC_NODE = 294.1915
ARG_OF_PERICENTER = 37.5060
MEAN_ANOMALY   = 322.7600

EPHEMERIS_TYPE = 0
CLASSIFICATION_TYPE = U
NORAD_CAT_ID   = 20466
ELEMENT_SET_NO = 999
REV_AT_EPOCH   = 92425
BSTAR          = .55181915E-4
MEAN_MOTION_DOT = .48E-5
MEAN_MOTION_DDOT = 0

CCSDS_OMM_VERS = 2.0
CREATION_DATE  = 
ORIGINATOR     = 

OBJECT_NAME    = SL-14 R/B
OBJECT_ID      = 1990-018B
CENTER_NAME    = EARTH
REF_FRAME      = TEME
TIME_SYSTEM    = UTC
MEAN_ELEMENT_THEORY = SGP/SGP4

EPOCH          = 2026-02-09T14:52:17.327136
MEAN_MOTION    = 14.82115175
ECCENTRICITY   = .00162923
INCLINATION    = 82.5181
RA_OF_ASC_NODE = 249.3324
ARG_OF_PERICENTER = 179.4220
MEAN_ANOMALY   = 180.7016

EPHEMERIS_TYPE = 0
CLASSIFICATION_TYPE = U
NORAD_CAT_ID   = 20511
ELEMENT_SET_NO = 999
REV_AT_EPOCH   = 91842
BSTAR          = .54722162E-4
MEAN_MOTION_DOT = .46E-5
MEAN_MOTION_DDOT = 0

CCSDS_OMM_VERS = 2.0
CREATION_DATE  = 
ORIGINATOR     = 

OBJECT_NAME    = HST
OBJECT_ID      = 1990-037B
CENTER_NAME    = EARTH
REF_FRAME      = TEME
TIME_SYSTEM    = UTC
MEAN_ELEMENT_THEORY = SGP/SGP4

EPOCH          = 2026-02-08T18:30:49.773888
MEAN_MOTION    = 15.29016206
ECCENTRICITY   = .00017698
INCLINATION    = 28.4663
RA_OF_ASC_NODE = 237.2056
ARG_OF_PERICENTER = 143.1754
MEAN_ANOMALY   = 216.8963

EPHEMERIS_TYPE = 0
CLASSIFICATION_TYPE = U
NORAD_CAT_ID   = 20580
ELEMENT_SET_NO = 999
REV_AT_EPOCH   = 76888
BSTAR          = .25068742E-3
MEAN_MOTION_DOT = .7499E-4
MEAN_MOTION_DDOT = 0

CCSDS_OMM_VERS = 2.0
CREATION_DATE  = 
ORIGINATOR     = 

OBJECT_NAME    = SL-16 R/B
OBJECT_ID      = 1990-046B
CENTER_NAME    = EARTH
REF_FRAME      = TEME
TIME_SYSTEM    = UTC
MEAN_ELEMENT_THEORY = SGP/SGP4

EPOCH          = 2026-02-09T08:23:41.737632
MEAN_MOTION    = 14.15006480
ECCENTRICITY   = .00147426
INCLINATION    = 71.0004
RA_OF_ASC_NODE = 357.4296
ARG_OF_PERICENTER = 339.1446
MEAN_ANOMALY   = 20.9074

EPHEMERIS_TYPE = 0
CLASSIFICATION_TYPE = U
NORAD_CAT_ID   = 20625
ELEMENT_SET_NO = 999
REV_AT_EPOCH   = 84438
BSTAR          = .14467023E-3
MEAN_MOTION_DOT = .233E-5
MEAN_MOTION_DDOT = 0

CCSDS_OMM_VERS = 2.0
CREATION_DATE  = 
ORIGINATOR     = 

OBJECT_NAME    = COSMOS 2084
OBJECT_ID      = 1990-055A
CENTER_NAME    = EARTH
REF_FRAME      = TEME
TIME_SYSTEM    = UTC
MEAN_ELEMENT_THEORY = SGP/SGP4

EPOCH          = 2026-02-09T11:51:21.138624
MEAN_MOTION    = 15.05467431
ECCENTRICITY   = .00215562
INCLINATION    = 62.7896
RA_OF_ASC_NODE = 71.7301
ARG_OF_PERICENTER = 184.0431
MEAN_ANOMALY   = 176.0498

EPHEMERIS_TYPE = 0
CLASSIFICATION_TYPE = U
NORAD_CAT_ID   = 20663
ELEMENT_SET_NO = 999
REV_AT_EPOCH   = 93207
BSTAR          = .21783723E-3
MEAN_MOTION_DOT = .2957E-4
MEAN_MOTION_DDOT = 0

CCSDS_OMM_VERS = 2.0
CREATION_DATE  = 
ORIGINATOR     = 

OBJECT_NAME    = SL-6 R/B(2)
OBJECT_ID      = 1990-055D
CENTER_NAME    = EARTH
REF_FRAME      = TEME
TIME_SYSTEM    = UTC
MEAN_ELEMENT_THEORY = SGP/SGP4

EPOCH          = 2026-02-09T07:19:54.061248
MEAN_MOTION    = 15.03445387
ECCENTRICITY   = .0020507
INCLINATION    = 62.7849
RA_OF_ASC_NODE = 350.3638
ARG_OF_PERICENTER = 338.9203
MEAN_ANOMALY   = 21.1049

EPHEMERIS_TYPE = 0
CLASSIFICATION_TYPE = U
NORAD_CAT_ID   = 20666
ELEMENT_SET_NO = 999
REV_AT_EPOCH   = 93392
BSTAR          = .24429E-3
MEAN_MOTION_DOT = .3158E-4
MEAN_MOTION_DDOT = 0

CCSDS_OMM_VERS = 2.0
CREATION_DATE  = 
ORIGINATOR     = 

OBJECT_NAME    = SL-8 R/B
OBJECT_ID      = 1990-078B
CENTER_NAME    = EARTH
REF_FRAME      = TEME
TIME_SYSTEM    = UTC
MEAN_ELEMENT_THEORY = SGP/SGP4

EPOCH          = 2026-02-09T03:23:56.033664
MEAN_MOTION    = 14.88118565
ECCENTRICITY   = .03669674
INCLINATION    = 82.9022
RA_OF_ASC_NODE = 276.9649
ARG_OF_PERICENTER = 109.6441
MEAN_ANOMALY   = 254.4767

EPHEMERIS_TYPE = 0
CLASSIFICATION_TYPE = U
NORAD_CAT_ID   = 20775
ELEMENT_SET_NO = 999
REV_AT_EPOCH   = 80505
BSTAR          = .4340093E-3
MEAN_MOTION_DOT = .14734E-3
MEAN_MOTION_DDOT = 0

CCSDS_OMM_VERS = 2.0
CREATION_DATE  = 
ORIGINATOR     = 

OBJECT_NAME    = SL-8 R/B
OBJECT_ID      = 1991-006B
CENTER_NAME    = EARTH
REF_FRAME      = TEME
TIME_SYSTEM    = UTC
MEAN_ELEMENT_THEORY = SGP/SGP4

EPOCH          = 2026-02-09T12:21:08.355456
MEAN_MOTION    = 13.77492150
ECCENTRICITY   = .0023663
INCLINATION    = 82.9435
RA_OF_ASC_NODE = 190.9927
ARG_OF_PERICENTER = 113.2561
MEAN_ANOMALY   = 311.5747

EPHEMERIS_TYPE = 0
CLASSIFICATION_TYPE = U
NORAD_CAT_ID   = 21088
ELEMENT_SET_NO = 999
REV_AT_EPOCH   = 76019
BSTAR          = .27919748E-4
MEAN_MOTION_DOT = .43E-6
MEAN_MOTION_DDOT = 0

CCSDS_OMM_VERS = 2.0
CREATION_DATE  = 
ORIGINATOR     = 

OBJECT_NAME    = OKEAN-3
OBJECT_ID      = 1991-039A
CENTER_NAME    = EARTH
REF_FRAME      = TEME
TIME_SYSTEM    = UTC
MEAN_ELEMENT_THEORY = SGP/SGP4

EPOCH          = 2026-02-09T08:23:39.730560
MEAN_MOTION    = 15.04577762
ECCENTRICITY   = .00165091
INCLINATION    = 82.5177
RA_OF_ASC_NODE = 4.2899
ARG_OF_PERICENTER = 70.0214
MEAN_ANOMALY   = 290.2789

EPHEMERIS_TYPE = 0
CLASSIFICATION_TYPE = U
NORAD_CAT_ID   = 21397
ELEMENT_SET_NO = 999
REV_AT_EPOCH   = 86077
BSTAR          = .28204266E-3
MEAN_MOTION_DOT = .3995E-4
MEAN_MOTION_DDOT = 0

CCSDS_OMM_VERS = 2.0
CREATION_DATE  = 
ORIGINATOR     = 

OBJECT_NAME    = COSMOS 2151
OBJECT_ID      = 1991-042A
CENTER_NAME    = EARTH
REF_FRAME      = TEME
TIME_SYSTEM    = UTC
MEAN_ELEMENT_THEORY = SGP/SGP4

EPOCH          = 2026-02-09T14:23:58.431840
MEAN_MOTION    = 14.99997519
ECCENTRICITY   = .00133158
INCLINATION    = 82.4963
RA_OF_ASC_NODE = 110.7729
ARG_OF_PERICENTER = 148.9003
MEAN_ANOMALY   = 211.3012

EPHEMERIS_TYPE = 0
CLASSIFICATION_TYPE = U
NORAD_CAT_ID   = 21422
ELEMENT_SET_NO = 999
REV_AT_EPOCH   = 85898
BSTAR          = .19597485E-3
MEAN_MOTION_DOT = .2467E-4
MEAN_MOTION_DDOT = 0

