DELTA 2 R/B(1)          
1 20453U 90008B   26040.29866851  .00075412  00000+0  99426-3 0  9999
2 20453  35.6056   0.6113 0094071 353.6638   6.2904 15.52034445921711
COSMOS 2058             
1 20465U 90010A   26040.57296830  .00004390  00000+0  26041-3 0  9990
2 20465  82.4643  75.1267 0011950  75.4906 284.7649 15.11059680937994
SL-14 R/B               
1 20466U 90010B   26040.15677641  .00000480  00000+0  55182-4 0  9993
2 20466  82.5027 294.1915 0020777  37.5060 322.7600 14.83543721924259
SL-14 R/B               
1 20511U 90018B   26040.61964499  .00000460  00000+0  54722-4 0  9990
2 20511  82.5181 249.3324 0016292 179.4220 180.7016 14.82115175918420
HST                     
1 20580U 90037B   26039.77140942  .00007499  00000+0  25069-3 0  9991
2 20580  28.4663 237.2056 0001769 143.1754 216.8963 15.29016206768883
SL-16 R/B               
1 20625U 90046B   26040.34978863  .00000233  00000+0  14467-3 0  9996
2 20625  71.0004 357.4296 0014742 339.1446  20.9074 14.15006480844381
COSMOS 2084             
1 20663U 90055A   26040.49399466  .00002957  00000+0  21784-3 0  9995
2 20663  62.7896  71.7301 0021556 184.0431 176.0498 15.05467431932078
SL-6 R/B(2)             
1 20666U 90055D   26040.30548682  .00003158  00000+0  24429-3 0  9997
2 20666  62.7849 350.3638 0020507 338.9203  21.1049 15.03445387933921
SL-8 R/B                
1 20775U 90078B   26040.14162076  .00014734  00000+0  43401-3 0  9997
2 20775  82.9022 276.9649 0366967 109.6441 254.4767 14.88118565805051
SL-8 R/B                
1 21088U 91006B   26040.51468004  .00000043  00000+0  27920-4 0  9995
2 21088  82.9435 190.9927 0023663 113.2561 311.5747 13.77492150760198
OKEAN-3                 
1 21397U 91039A   26040.34976540  .00003995  00000+0  28204-3 0  9998
2 21397  82.5177   4.2899 0016509  70.0214 290.2789 15.04577762860770
COSMOS 2151             
1 21422U 91042A   26040.59998185  .00002467  00000+0  19597-3 0  9995
2 21422  82.4963 110.7729 0013315 148.9003 211.3012 14.99997519858981
